NORAD_CAT_ID,OBJECT_NAME,OBJECT_TYPE,EPOCH,MEAN_MOTION,ECCENTRICITY,INCLINATION,RA_OF_ASC_NODE,ARG_OF_PERICENTER,MEAN_ANOMALY,BSTAR,MEAN_MOTION_DOT,MEAN_MOTION_DDOT,TLE_LINE0,TLE_LINE1,TLE_LINE2,SEMIMAJOR_AXIS,PERIOD,APOGEE,PERIGEE,DECAYED
53412.0,STARLINK-4496,PAYLOAD,2023-07-03 17:49:52,15.08838882,0.0001002,53.2157,193.2734,84.4556,275.655,6.5407e-05,7.53e-06,0.0,0 STARLINK-4496,1 53412U 22097AA  23184.74296613  .00000753  00000-0  65407-4 0  9992,2 53412  53.2157 193.2734 0001002  84.4556 275.6550 15.08838882 50224,6917.884,95.438,540.442,539.056,0.0
53412.0,STARLINK-4496,PAYLOAD,2023-07-05 00:02:11,15.08841693,0.0001061,53.2159,187.6235,84.2349,275.8764,3.4231e-05,2.57e-06,0.0,0 STARLINK-4496,1 53412U 22097AA  23186.00152529  .00000257  00000-0  34231-4 0  9990,2 53412  53.2159 187.6235 0001061  84.2349 275.8764 15.08841693 50416,6917.875,95.437,540.474,539.006,0.0
53412.0,STARLINK-4496,PAYLOAD,2023-07-06 09:25:17,15.08841548,0.000109,53.216,181.3789,83.8191,276.2925,5.2497e-05,5.48e-06,0.0,0 STARLINK-4496,1 53412U 22097AA  23187.39256383  .00000548  00000-0  52497-4 0  9993,2 53412  53.2160 181.3789 0001090  83.8191 276.2925 15.08841548 50621,6917.876,95.437,540.495,538.987,0.0
53412.0,STARLINK-4496,PAYLOAD,2023-07-08 09:06:52,15.08837356,0.0001133,53.2161,172.4575,82.9948,277.1173,1.9571e-05,2.4e-07,0.0,0 STARLINK-4496,1 53412U 22097AA  23189.37976950  .00000024  00000-0  19571-4 0  9997,2 53412  53.2161 172.4575 0001133  82.9948 277.1173 15.08837356 50924,6917.888,95.438,540.537,538.97,0.0
53412.0,STARLINK-4496,PAYLOAD,2023-07-09 02:36:07,15.08799356,0.0001281,53.2159,169.1863,76.7264,283.3871,0.00042925,6.543e-05,0.0,0 STARLINK-4496,1 53412U 22097AA  23190.10841620  .00006543  00000-0  42925-3 0  9995,2 53412  53.2159 169.1863 0001281  76.7264 283.3871 15.08799356 51034,6918.005,95.44,540.756,538.983,0.0
53412.0,STARLINK-4496,PAYLOAD,2023-07-09 07:22:16,15.08837161,0.0001064,53.2158,168.2944,82.9985,277.1129,-4.1886e-06,-3.54e-06,0.0,0 STARLINK-4496,1 53412U 22097AA  23190.30713352 -.00000354  00000-0 -41886-5 0  9990,2 53412  53.2158 168.2944 0001064  82.9985 277.1129 15.08837161 51068,6917.889,95.438,540.49,539.018,0.0
53412.0,STARLINK-4496,PAYLOAD,2023-07-10 10:23:49,15.08840292,0.0001123,53.2162,163.2396,86.2288,273.8832,7.416e-05,8.93e-06,0.0,0 STARLINK-4496,1 53412U 22097AA  23191.43321243  .00000893  00000-0  74160-4 0  9995,2 53412  53.2162 163.2396 0001123  86.2288 273.8832 15.08840292 51230,6917.879,95.438,540.521,538.968,0.0
53412.0,STARLINK-4496,PAYLOAD,2023-07-11 07:03:50,15.08837301,0.0001123,53.2164,159.3741,88.2582,271.8539,5.1336e-05,5.29e-06,0.0,0 STARLINK-4496,1 53412U 22097AA  23192.29433700  .00000529  00000-0  51336-4 0  9998,2 53412  53.2164 159.3741 0001123  88.2582 271.8539 15.08837301 51364,6917.889,95.438,540.531,538.977,0.0
53412.0,STARLINK-4496,PAYLOAD,2023-07-12 06:54:37,15.08846117,0.0001269,53.2172,154.9131,88.4634,271.6504,8.2447e-05,1.025e-05,0.0,0 STARLINK-4496,1 53412U 22097AA  23193.28793149  .00001025  00000-0  82447-4 0  9993,2 53412  53.2172 154.9131 0001269  88.4634 271.6504 15.08846117 51510,6917.862,95.437,540.605,538.849,0.0
53412.0,STARLINK-4496,PAYLOAD,2023-07-12 14:51:33,15.08838923,0.0001143,53.2163,153.4264,91.8361,268.2762,2.0504e-05,3.9e-07,0.0,0 STARLINK-4496,1 53412U 22097AA  23193.61913741  .00000039  00000-0  20504-4 0  9992,2 53412  53.2163 153.4264 0001143  91.8361 268.2762 15.08838923 51566,6917.884,95.438,540.539,538.958,0.0
53412.0,STARLINK-4496,PAYLOAD,2023-07-14 03:25:25,15.08842419,0.0001209,53.2171,146.5858,91.6511,268.462,-1.1738e-06,-3.07e-06,0.0,0 STARLINK-4496,1 53412U 22097AA  23195.14265689 -.00000307  00000-0 -11738-5 0  9993,2 53412  53.2171 146.5858 0001209  91.6511 268.4620 15.08842419 51790,6917.873,95.437,540.574,538.902,0.0
53412.0,STARLINK-4496,PAYLOAD,2023-07-15 03:16:11,15.08848044,0.000132,53.2175,142.1255,98.9524,261.1618,9.343e-05,1.2e-05,0.0,0 STARLINK-4496,1 53412U 22097AA  23196.13624919  .00001200  00000-0  93430-4 0  9997,2 53412  53.2175 142.1255 0001320  98.9524 261.1618 15.08848044 51949,6917.856,95.437,540.634,538.808,0.0
53412.0,STARLINK-4496,PAYLOAD,2023-07-16 03:06:59,15.08836235,0.0001231,53.2172,137.6677,102.3417,257.7713,4.3013e-05,3.97e-06,0.0,0 STARLINK-4496,1 53412U 22097AA  23197.12986015  .00000397  00000-0  43013-4 0  9993,2 53412  53.2172 137.6677 0001231 102.3417 257.7713 15.08836235 52098,6917.892,95.438,540.608,538.905,0.0
53412.0,STARLINK-4496,PAYLOAD,2023-07-17 12:30:05,15.08843414,0.0001237,53.2178,131.4246,104.4439,255.6691,-1.0524e-05,-4.55e-06,0.0,0 STARLINK-4496,1 53412U 22097AA  23198.52090046 -.00000455  00000-0 -10524-4 0  9996,2 53412  53.2178 131.4246 0001237 104.4439 255.6691 15.08843414 52304,6917.87,95.437,540.591,538.879,0.0
53412.0,STARLINK-4496,PAYLOAD,2023-07-18 17:07:02,15.0883895,0.000114,53.217,126.0715,100.5611,259.5509,0.00013589,1.875e-05,0.0,0 STARLINK-4496,1 53412U 22097AA  23199.71322153  .00001875  00000-0  13589-3 0  9993,2 53412  53.2170 126.0715 0001140 100.5611 259.5509 15.08838950 52488,6917.884,95.438,540.537,538.96,0.0
53412.0,STARLINK-4496,PAYLOAD,2023-07-19 02:39:21,15.08832395,9.65e-05,53.218,124.2868,81.2581,278.852,1.6812e-05,-2e-07,0.0,0 STARLINK-4496,1 53412U 22097AA  23200.11066997 -.00000020  00000-0  16812-4 0  9996,2 53412  53.2180 124.2868 0000965  81.2581 278.8520 15.08832395 52544,6917.904,95.438,540.436,539.101,0.0
53412.0,STARLINK-4496,PAYLOAD,2023-07-20 18:23:59,15.08840744,0.0001118,53.2166,116.8523,85.0464,275.0656,0.00010695,1.415e-05,0.0,0 STARLINK-4496,1 53412U 22097AA  23201.76666495  .00001415  00000-0  10695-3 0  9997,2 53412  53.2166 116.8523 0001118  85.0464 275.0656 15.08840744 52799,6917.878,95.438,540.517,538.97,0.0
53412.0,STARLINK-4496,PAYLOAD,2023-07-24 03:28:40,15.08834183,0.0001216,53.2181,101.6845,105.0269,255.0857,-1.1439e-05,-4.7e-06,0.0,0 STARLINK-4496,1 53412U 22097AA  23205.14491367 -.00000470  00000-0 -11439-4 0  9997,2 53412  53.2181 101.6845 0001216 105.0269 255.0857 15.08834183 53792,6917.898,95.438,540.604,538.922,0.0
53412.0,STARLINK-4496,PAYLOAD,2023-07-25 03:19:26,15.08847422,0.000104,53.2188,97.2232,108.2268,251.8838,5.3865e-05,5.7e-06,0.0,0 STARLINK-4496,1 53412U 22097AA  23206.13850539  .00000570  00000-0  53865-4 0  9995,2 53412  53.2188  97.2232 0001040 108.2268 251.8838 15.08847422 53948,6917.858,95.437,540.442,539.003,0.0
53412.0,STARLINK-4496,PAYLOAD,2023-07-25 23:59:28,15.08840507,7.79e-05,53.2171,93.3609,76.9176,283.1903,0.00012032,1.628e-05,0.0,0 STARLINK-4496,1 53412U 22097AA  23206.99963308  .00001628  00000-0  12032-3 0  9993,2 53412  53.2171  93.3609 0000779  76.9176 283.1903 15.08840507 54075,6917.879,95.438,540.283,539.205,0.0
53412.0,STARLINK-4496,PAYLOAD,2023-07-26 22:14:51,15.08867925,7.75e-05,53.2173,89.1975,93.2367,266.8714,-0.00010651,-1.984e-05,0.0,0 STARLINK-4496,1 53412U 22097AA  23207.92698018 -.00001984  00000-0 -10651-3 0  9992,2 53412  53.2173  89.1975 0000775  93.2367 266.8714 15.08867925 54213,6917.795,95.436,540.196,539.124,0.0
53412.0,STARLINK-4496,PAYLOAD,2023-07-27 09:22:33,15.08839447,5.39e-05,53.2157,87.1134,95.8919,264.2134,-8.5365e-06,-4.23e-06,0.0,0 STARLINK-4496,1 53412U 22097AA  23208.39066825 -.00000423  00000-0 -85365-5 0  9992,2 53412  53.2157  87.1134 0000539  95.8919 264.2134 15.08839447 53797,6917.882,95.438,540.12,539.374,0.0
53412.0,STARLINK-4496,PAYLOAD,2023-07-27 22:05:39,15.08825357,9.81e-05,53.2165,84.7364,78.7607,281.3495,-0.00015905,-2.817e-05,0.0,0 STARLINK-4496,1 53412U 22097AA  23208.92060129 -.00002817  00000-0 -15905-3 0  9992,2 53412  53.2165  84.7364 0000981  78.7607 281.3495 15.08825357 54368,6917.925,95.438,540.469,539.111,0.0
53412.0,STARLINK-4496,PAYLOAD,2023-07-28 01:16:26,15.08828537,8.81e-05,53.2165,84.1411,82.135,277.9742,-9.6859e-05,-1.828e-05,0.0,0 STARLINK-4496,1 53412U 22097AA  23209.05308087 -.00001828  00000-0 -96859-4 0  9994,2 53412  53.2165  84.1411 0000881  82.1350 277.9742 15.08828537 53894,6917.915,95.438,540.39,539.171,0.0
53412.0,STARLINK-4496,PAYLOAD,2023-07-28 21:56:26,15.08845263,9e-05,53.217,80.2758,79.7151,280.3943,0.00028744,4.29e-05,0.0,0 STARLINK-4496,1 53412U 22097AA  23209.91419590  .00004290  00000-0  28744-3 0  9992,2 53412  53.2170  80.2758 0000900  79.7151 280.3943 15.08845263 54026,6917.864,95.437,540.352,539.107,0.0
53412.0,STARLINK-4496,PAYLOAD,2023-07-29 18:36:27,15.08846595,9.43e-05,53.2166,76.4105,73.7926,286.3169,0.00038809,5.895e-05,0.0,0 STARLINK-4496,1 53412U 22097AA  23210.77531901  .00005895  00000-0  38809-3 0  9994,2 53412  53.2166  76.4105 0000943  73.7926 286.3169 15.08846595 54154,6917.86,95.437,540.378,539.073,0.0
53412.0,STARLINK-4496,PAYLOAD,2023-07-30 00:57:59,15.08858234,9.69e-05,53.2166,75.2218,74.6086,285.5014,0.00046627,7.144e-05,0.0,0 STARLINK-4496,1 53412U 22097AA  23211.04027375  .00007144  00000-0  46627-3 0  9996,2 53412  53.2166  75.2218 0000969  74.6086 285.5014 15.08858234 54198,6917.825,95.436,540.36,539.019,0.0
53412.0,STARLINK-4496,PAYLOAD,2023-07-30 18:27:14,15.08842125,0.000105,53.2169,71.9484,79.4521,280.659,3.4166e-05,2.56e-06,0.0,0 STARLINK-4496,1 53412U 22097AA  23211.76891567  .00000256  00000-0  34166-4 0  9990,2 53412  53.2169  71.9484 0001050  79.4521 280.6590 15.08842125 54308,6917.874,95.437,540.465,539.013,0.0
53412.0,STARLINK-4496,PAYLOAD,2023-07-31 21:28:47,15.0884253,0.0001053,53.2178,66.896,99.5001,260.611,5.1244e-05,5.28e-06,0.0,0 STARLINK-4496,1 53412U 22097AA  23212.89499690  .00000528  00000-0  51244-4 0  9994,2 53412  53.2178  66.8960 0001053  99.5001 260.6110 15.08842530 54473,6917.873,95.437,540.466,539.009,0.0
53412.0,STARLINK-4496,PAYLOAD,2023-08-01 18:08:48,15.08837181,9.99e-05,53.2164,63.0301,112.6481,247.4617,-5.0831e-05,-1.097e-05,0.0,0 STARLINK-4496,1 53412U 22097AA  23213.75611925 -.00001097  00000-0 -50831-4 0  9992,2 53412  53.2164  63.0301 0000999 112.6481 247.4617 15.08837181 54609,6917.889,95.438,540.445,539.063,0.0
